{
  "norad_id": 62684,
  "name": "IRIS-F2",
  "history": [
    {
      "epoch": "2026-04-16T11:54:25.479072Z",
      "apogee_km": 492.7165055519272,
      "perigee_km": 485.68297926035575,
      "latitude_deg": -2.1640863017878892e-06,
      "longitude_deg": 163.7286320185654,
      "height_km": 495.740312912007,
      "semi_major_axis_km": 6867.336742406142,
      "eccentricity": 0.0005121,
      "inclination_deg": 97.3903,
      "raan_deg": 186.9778,
      "arg_perigee_deg": 191.9904,
      "mean_anomaly_deg": 168.1213,
      "mean_motion_rev_day": 15.25528222
    },
    {
      "epoch": "2026-04-17T17:49:03.228672Z",
      "apogee_km": 492.7956247273214,
      "perigee_km": 485.56077082016327,
      "latitude_deg": -7.914861535894203e-07,
      "longitude_deg": 75.07406364194496,
      "height_km": 495.8661357012375,
      "semi_major_axis_km": 6867.315197773742,
      "eccentricity": 0.00052676,
      "inclination_deg": 97.39,
      "raan_deg": 188.2089,
      "arg_perigee_deg": 187.3272,
      "mean_anomaly_deg": 172.789,
      "mean_motion_rev_day": 15.25535401
    },
    {
      "epoch": "2026-04-18T11:08:02.729472Z",
      "apogee_km": 492.8367567817295,
      "perigee_km": 485.49300149821465,
      "latitude_deg": 7.017015165240778e-05,
      "longitude_deg": 175.32787024844853,
      "height_km": 495.92389312031776,
      "semi_major_axis_km": 6867.301879139972,
      "eccentricity": 0.00053469,
      "inclination_deg": 97.39,
      "raan_deg": 188.9218,
      "arg_perigee_deg": 184.7489,
      "mean_anomaly_deg": 175.37,
      "mean_motion_rev_day": 15.25539839
    },
    {
      "epoch": "2026-04-19T20:11:33.593856Z",
      "apogee_km": 492.88434842389506,
      "perigee_km": 485.3619516555409,
      "latitude_deg": -1.3756120896102626e-05,
      "longitude_deg": 39.45271104253793,
      "height_km": 495.9834173508457,
      "semi_major_axis_km": 6867.260150039718,
      "eccentricity": 0.0005477,
      "inclination_deg": 97.3899,
      "raan_deg": 190.2829,
      "arg_perigee_deg": 179.7206,
      "mean_anomaly_deg": 180.4036,
      "mean_motion_rev_day": 15.25553744
    },
    {
      "epoch": "2026-04-19T20:11:33.594720Z",
      "apogee_km": 492.8840050608869,
      "perigee_km": 485.36229501854905,
      "latitude_deg": -1.3719430950175522e-05,
      "longitude_deg": 39.452707427948525,
      "height_km": 495.98307391451806,
      "semi_major_axis_km": 6867.260150039718,
      "eccentricity": 0.00054765,
      "inclination_deg": 97.3899,
      "raan_deg": 190.2829,
      "arg_perigee_deg": 179.7206,
      "mean_anomaly_deg": 180.4036,
      "mean_motion_rev_day": 15.25553744
    },
    {
      "epoch": "2026-04-21T11:32:51.566496Z",
      "apogee_km": 492.96425783574614,
      "perigee_km": 485.1584508103542,
      "latitude_deg": -5.826609440993229e-05,
      "longitude_deg": 169.13127500484867,
      "height_km": 496.043499103412,
      "semi_major_axis_km": 6867.19835432305,
      "eccentricity": 0.00056834,
      "inclination_deg": 97.3888,
      "raan_deg": 191.9026,
      "arg_perigee_deg": 174.322,
      "mean_anomaly_deg": 185.8083,
      "mean_motion_rev_day": 15.25574336
    },
    {
      "epoch": "2026-04-22T17:27:26.019072Z",
      "apogee_km": 493.028068005744,
      "perigee_km": 485.04978301548454,
      "latitude_deg": -3.7381509852864545e-05,
      "longitude_deg": 80.49097438639822,
      "height_km": 496.0677015075668,
      "semi_major_axis_km": 6867.1759255106135,
      "eccentricity": 0.0005809,
      "inclination_deg": 97.389,
      "raan_deg": 193.1342,
      "arg_perigee_deg": 170.2099,
      "mean_anomaly_deg": 189.9253,
      "mean_motion_rev_day": 15.2558181
    },
    {
      "epoch": "2026-04-23T02:54:08.315712Z",
      "apogee_km": 493.0443394446502,
      "perigee_km": 485.0109928748834,
      "latitude_deg": 1.733633415337805e-05,
      "longitude_deg": -61.184165298550695,
      "height_km": 496.06599623822075,
      "semi_major_axis_km": 6867.164666159767,
      "eccentricity": 0.00058491,
      "inclination_deg": 97.389,
      "raan_deg": 193.5232,
      "arg_perigee_deg": 168.8487,
      "mean_anomaly_deg": 191.2882,
      "mean_motion_rev_day": 15.25585562
    }
  ]
}